{"type": "FeatureCollection", "features": [ {"type": "Feature", "properties": {"norad_id": 58662, "name": "TIANMU-1 21", "group": "weather", "lat": -20.302156362378774, "lon": 104.33139793791841, "alt_km": 476.0094798322816, "timestamp": "2025-12-14T03:55:52.437082+00:00", "meta": {"OBJECT_NAME": "TIANMU-1 21", "OBJECT_ID": "2023-208C", "EPOCH": "2025-12-13T07:38:10.631040", "MEAN_MOTION": 15.31572186, "ECCENTRICITY": 0.00058898, "INCLINATION": 97.4369, "RA_OF_ASC_NODE": 100.7131, "ARG_OF_PERICENTER": 257.4505, "MEAN_ANOMALY": 102.6077, "EPHEMERIS_TYPE": 0, "CLASSIFICATION_TYPE": "U", "NORAD_CAT_ID": 58662, "ELEMENT_SET_NO": 999, "REV_AT_EPOCH": 10908, "BSTAR": 0.0005544551, "MEAN_MOTION_DOT": 0.00016853, "MEAN_MOTION_DDOT": 0}, "tle": {"line1": "1 58662U 23208C   25347.31817860  .00016853  00000+0  55446-3 0  9996", "line2": "2 58662  97.4369 100.7131 0005889 257.4505 102.6077 15.31572186109088"}}, "geometry": {"type": "Point", "coordinates": [104.33139793791841, -20.302156362378774]}}, {"type": "Feature", "properties": {"norad_id": 58663, "name": "TIANMU-1 22", "group": "weather", "lat": -60.76736641089594, "lon": -94.24349248290925, "alt_km": 488.6174906814622, "timestamp": "2025-12-14T03:55:52.437094+00:00", "meta": {"OBJECT_NAME": "TIANMU-1 22", "OBJECT_ID": "2023-208D", "EPOCH": "2025-12-13T06:26:22.892928", "MEAN_MOTION": 15.27619992, "ECCENTRICITY": 0.00026979, "INCLINATION": 97.4377, "RA_OF_ASC_NODE": 98.3629, "ARG_OF_PERICENTER": 284.385, "MEAN_ANOMALY": 75.7089, "EPHEMERIS_TYPE": 0, "CLASSIFICATION_TYPE": "U", "NORAD_CAT_ID": 58663, "ELEMENT_SET_NO": 999, "REV_AT_EPOCH": 10891, "BSTAR": 0.00051330861, "MEAN_MOTION_DOT": 0.00013799, "MEAN_MOTION_DDOT": 0}, "tle": {"line1": "1 58663U 23208D   25347.26832052  .00013799  00000+0  51331-3 0  9996", "line2": "2 58663  97.4377  98.3629 0002697 284.3850  75.7089 15.27619992108914"}}, "geometry": {"type": "Point", "coordinates": [-94.24349248290925, -60.76736641089594]}}, {"type": "Feature", "properties": {"norad_id": 58700, "name": "TIANMU-1 15", "group": "weather", "lat": -3.585696184642676, "lon": 170.09905745812318, "alt_km": 493.2971370210962, "timestamp": "2025-12-14T03:55:52.437105+00:00", "meta": {"OBJECT_NAME": "TIANMU-1 15", "OBJECT_ID": "2024-004A", "EPOCH": "2025-12-11T12:56:40.540704", "MEAN_MOTION": 15.24670451, "ECCENTRICITY": 0.00052437, "INCLINATION": 97.4631, "RA_OF_ASC_NODE": 167.0136, "ARG_OF_PERICENTER": 303.7498, "MEAN_ANOMALY": 56.324, "EPHEMERIS_TYPE": 0, "CLASSIFICATION_TYPE": "U", "NORAD_CAT_ID": 58700, "ELEMENT_SET_NO": 999, "REV_AT_EPOCH": 10716, "BSTAR": 0.00086402607, "MEAN_MOTION_DOT": 0.00021326, "MEAN_MOTION_DDOT": 0}, "tle": {"line1": "1 58700U 24004A   25345.53935811  .00021326  00000+0  86403-3 0  9991", "line2": "2 58700  97.4631 167.0136 0005243 303.7498  56.3240 15.24670451107164"}}, "geometry": {"type": "Point", "coordinates": [170.09905745812318, -3.585696184642676]}}, {"type": "Feature", "properties": {"norad_id": 58701, "name": "TIANMU-1 16", "group": "weather", "lat": 74.69407713928024, "lon": 140.42182177945787, "alt_km": 487.80891068076835, "timestamp": "2025-12-14T03:55:52.437115+00:00", "meta": {"OBJECT_NAME": "TIANMU-1 16", "OBJECT_ID": "2024-004B", "EPOCH": "2025-12-13T07:07:01.053408", "MEAN_MOTION": 15.24446717, "ECCENTRICITY": 0.00044508, "INCLINATION": 97.457, "RA_OF_ASC_NODE": 168.1522, "ARG_OF_PERICENTER": 294.381, "MEAN_ANOMALY": 65.6963, "EPHEMERIS_TYPE": 0, "CLASSIFICATION_TYPE": "U", "NORAD_CAT_ID": 58701, "ELEMENT_SET_NO": 999, "REV_AT_EPOCH": 10743, "BSTAR": 0.000436156, "MEAN_MOTION_DOT": 0.00010642, "MEAN_MOTION_DDOT": 0}, "tle": {"line1": "1 58701U 24004B   25347.29653997  .00010642  00000+0  43616-3 0  9997", "line2": "2 58701  97.4570 168.1522 0004450 294.3810  65.6963 15.24446717107431"}}, "geometry": {"type": "Point", "coordinates": [140.42182177945787, 74.69407713928024]}}, {"type": "Feature", "properties": {"norad_id": 58702, "name": "TIANMU-1 17", "group": "weather", "lat": 18.446318384065567, "lon": -8.06873438140663, "alt_km": 494.422423285886, "timestamp": "2025-12-14T03:55:52.437125+00:00", "meta": {"OBJECT_NAME": "TIANMU-1 17", "OBJECT_ID": "2024-004C", "EPOCH": "2025-12-13T06:44:48.780960", "MEAN_MOTION": 15.24488877, "ECCENTRICITY": 0.00036795, "INCLINATION": 97.4604, "RA_OF_ASC_NODE": 168.5473, "ARG_OF_PERICENTER": 298.1152, "MEAN_ANOMALY": 61.9713, "EPHEMERIS_TYPE": 0, "CLASSIFICATION_TYPE": "U", "NORAD_CAT_ID": 58702, "ELEMENT_SET_NO": 999, "REV_AT_EPOCH": 10742, "BSTAR": 0.00041336515, "MEAN_MOTION_DOT": 0.00010093, "MEAN_MOTION_DDOT": 0}, "tle": {"line1": "1 58702U 24004C   25347.28112015  .00010093  00000+0  41337-3 0  9996", "line2": "2 58702  97.4604 168.5473 0003679 298.1152  61.9713 15.24488877107426"}}, "geometry": {"type": "Point", "coordinates": [-8.06873438140663, 18.446318384065567]}}, {"type": "Feature", "properties": {"norad_id": 58703, "name": "TIANMU-1 18", "group": "weather", "lat": -71.27536690806626, "lon": -33.126713718955884, "alt_km": 498.07871348490426, "timestamp": "2025-12-14T03:55:52.437135+00:00", "meta": {"OBJECT_NAME": "TIANMU-1 18", "OBJECT_ID": "2024-004D", "EPOCH": "2025-12-13T07:55:18.745248", "MEAN_MOTION": 15.24477811, "ECCENTRICITY": 0.00030174, "INCLINATION": 97.4621, "RA_OF_ASC_NODE": 168.7915, "ARG_OF_PERICENTER": 298.0152, "MEAN_ANOMALY": 62.0779, "EPHEMERIS_TYPE": 0, "CLASSIFICATION_TYPE": "U", "NORAD_CAT_ID": 58703, "ELEMENT_SET_NO": 999, "REV_AT_EPOCH": 10743, "BSTAR": 0.00043475331, "MEAN_MOTION_DOT": 0.00010616, "MEAN_MOTION_DDOT": 0}, "tle": {"line1": "1 58703U 24004D   25347.33007807  .00010616  00000+0  43475-3 0  9991", "line2": "2 58703  97.4621 168.7915 0003017 298.0152  62.0779 15.24477811107435"}}, "geometry": {"type": "Point", "coordinates": [-33.126713718955884, -71.27536690806626]}}, {"type": "Feature", "properties": {"norad_id": 58990, "name": "INSAT-3DS", "group": "weather", "lat": 0.012390972387091272, "lon": -135.87883975127988, "alt_km": 35781.70144912438, "timestamp": "2025-12-14T03:55:52.437146+00:00", "meta": {"OBJECT_NAME": "INSAT-3DS", "OBJECT_ID": "2024-033A", "EPOCH": "2025-12-13T03:34:06.066048", "MEAN_MOTION": 1.00272555, "ECCENTRICITY": 0.00012937, "INCLINATION": 0.0416, "RA_OF_ASC_NODE": 135.4969, "ARG_OF_PERICENTER": 128.5024, "MEAN_ANOMALY": 313.6937, "EPHEMERIS_TYPE": 0, "CLASSIFICATION_TYPE": "U", "NORAD_CAT_ID": 58990, "ELEMENT_SET_NO": 999, "REV_AT_EPOCH": 4520, "BSTAR": 0, "MEAN_MOTION_DOT": -1.43e-06, "MEAN_MOTION_DDOT": 0}, "tle": {"line1": "1 58990U 24033A   25347.14868132 -.00000143  00000+0  00000+0 0  9994", "line2": "2 58990   0.0416 135.4969 0001293 128.5024 313.6937  1.00272555 45208"}}, "geometry": {"type": "Point", "coordinates": [-135.87883975127988, 0.012390972387091272]}}, {"type": "Feature", "properties": {"norad_id": 59051, "name": "METEOR-M2 4", "group": "weather", "lat": -79.99213124712541, "lon": 65.13145395422842, "alt_km": 824.5193199272917, "timestamp": "2025-12-14T03:55:52.437158+00:00", "meta": {"OBJECT_NAME": "METEOR-M2 4", "OBJECT_ID": "2024-039A", "EPOCH": "2025-12-13T08:07:04.927008", "MEAN_MOTION": 14.22401435, "ECCENTRICITY": 0.00070115, "INCLINATION": 98.6766, "RA_OF_ASC_NODE": 304.2377, "ARG_OF_PERICENTER": 356.862, "MEAN_ANOMALY": 3.2513, "EPHEMERIS_TYPE": 0, "CLASSIFICATION_TYPE": "U", "NORAD_CAT_ID": 59051, "ELEMENT_SET_NO": 999, "REV_AT_EPOCH": 9284, "BSTAR": 5.2764232e-05, "MEAN_MOTION_DOT": 7.4e-07, "MEAN_MOTION_DDOT": 0}, "tle": {"line1": "1 59051U 24039A   25347.33825147  .00000074  00000+0  52764-4 0  9990", "line2": "2 59051  98.6766 304.2377 0007011 356.8620   3.2513 14.22401435 92842"}}, "geometry": {"type": "Point", "coordinates": [65.13145395422842, -79.99213124712541]}}, {"type": "Feature", "properties": {"norad_id": 60133, "name": "GOES 19", "group": "weather", "lat": -0.004076290801710704, "lon": 66.86344757592437, "alt_km": 35788.57041949734, "timestamp": "2025-12-14T03:55:52.437170+00:00", "meta": {"OBJECT_NAME": "GOES 19", "OBJECT_ID": "2024-119A", "EPOCH": "2025-12-13T04:31:53.030208", "MEAN_MOTION": 1.00270466, "ECCENTRICITY": 0.00012514, "INCLINATION": 0.0048, "RA_OF_ASC_NODE": 222.6122, "ARG_OF_PERICENTER": 91.7841, "MEAN_ANOMALY": 120.5093, "EPHEMERIS_TYPE": 0, "CLASSIFICATION_TYPE": "U", "NORAD_CAT_ID": 60133, "ELEMENT_SET_NO": 999, "REV_AT_EPOCH": 509, "BSTAR": 0, "MEAN_MOTION_DOT": -2.35e-06, "MEAN_MOTION_DDOT": 0}, "tle": {"line1": "1 60133U 24119A   25347.18880822 -.00000235  00000+0  00000+0 0  9997", "line2": "2 60133   0.0048 222.6122 0001251  91.7841 120.5093  1.00270466  5093"}}, "geometry": {"type": "Point", "coordinates": [66.86344757592437, -0.004076290801710704]}}, {"type": "Feature", "properties": {"norad_id": 65815, "name": "FENGYUN 3H", "group": "weather", "lat": 47.991397218099664, "lon": 117.46331957726034, "alt_km": 820.9947108508713, "timestamp": "2025-12-14T03:55:52.437180+00:00", "meta": {"OBJECT_NAME": "FENGYUN 3H", "OBJECT_ID": "2025-219A", "EPOCH": "2025-12-13T07:01:15.626208", "MEAN_MOTION": 14.19905036, "ECCENTRICITY": 6.35e-05, "INCLINATION": 98.6585, "RA_OF_ASC_NODE": 286.8709, "ARG_OF_PERICENTER": 93.6644, "MEAN_ANOMALY": 266.4605, "EPHEMERIS_TYPE": 0, "CLASSIFICATION_TYPE": "U", "NORAD_CAT_ID": 65815, "ELEMENT_SET_NO": 999, "REV_AT_EPOCH": 1100, "BSTAR": 0.00010467135, "MEAN_MOTION_DOT": 1.79e-06, "MEAN_MOTION_DDOT": 0}, "tle": {"line1": "1 65815U 25219A   25347.29254197  .00000179  00000+0  10467-3 0  9991", "line2": "2 65815  98.6585 286.8709 0000635  93.6644 266.4605 14.19905036 11003"}}, "geometry": {"type": "Point", "coordinates": [117.46331957726034, 47.991397218099664]}}]}